NORAD_CAT_ID,OBJECT_NAME,OBJECT_TYPE,EPOCH,MEAN_MOTION,ECCENTRICITY,INCLINATION,RA_OF_ASC_NODE,ARG_OF_PERICENTER,MEAN_ANOMALY,BSTAR,MEAN_MOTION_DOT,MEAN_MOTION_DDOT,TLE_LINE0,TLE_LINE1,TLE_LINE2,SEMIMAJOR_AXIS,PERIOD,APOGEE,PERIGEE,DECAYED
55428.0,STARLINK-5064,PAYLOAD,2023-12-16 09:24:46,14.98327454,0.0002818,69.9995,337.7793,264.6157,95.4681,1.7339e-05,1.14e-06,0.0,0 STARLINK-5064,1 55428U 23014AP  23350.39220086  .00000114  00000-0  17339-4 0  9990,2 55428  69.9995 337.7793 0002818 264.6157  95.4681 14.98327454 48644,6950.201,96.107,574.024,570.107,0.0
55428.0,STARLINK-5064,PAYLOAD,2023-12-17 09:26:46,14.98333564,0.0002824,69.9995,335.2543,265.0485,95.0352,2.2262e-05,1.73e-06,0.0,0 STARLINK-5064,1 55428U 23014AP  23351.39359617  .00000173  00000-0  22262-4 0  9990,2 55428  69.9995 335.2543 0002824 265.0485  95.0352 14.98333564 48792,6950.182,96.107,574.01,570.084,0.0
55428.0,STARLINK-5064,PAYLOAD,2023-12-18 07:52:39,14.98337006,0.0002792,69.9995,332.8971,265.1618,94.9222,9.1524e-05,9.99e-06,0.0,0 STARLINK-5064,1 55428U 23014AP  23352.32822925  .00000999  00000-0  91524-4 0  9994,2 55428  69.9995 332.8971 0002792 265.1618  94.9222 14.98337006 49872,6950.171,96.107,573.977,570.096,0.0
55428.0,STARLINK-5064,PAYLOAD,2023-12-19 03:06:16,14.98324444,0.0002442,70.0013,330.8796,236.4086,123.684,-6.8056e-05,-9.05e-06,0.0,0 STARLINK-5064,1 55428U 23014AP  23353.12936035 -.00000905  00000-0 -68056-4 0  9994,2 55428  70.0013 330.8796 0002442 236.4086 123.6840 14.98324444 49059,6950.21,96.107,573.772,570.378,0.0
55428.0,STARLINK-5064,PAYLOAD,2023-12-19 07:54:41,14.9832037,0.0002502,70.0008,330.3741,247.228,112.8615,-0.00011539,-1.469e-05,0.0,0 STARLINK-5064,1 55428U 23014AP  23353.32964556 -.00001469  00000-0 -11539-3 0  9994,2 55428  70.0008 330.3741 0002502 247.2280 112.8615 14.98320370 50024,6950.223,96.108,573.827,570.349,0.0
55428.0,STARLINK-5064,PAYLOAD,2023-12-20 03:08:17,14.98330037,0.0002996,69.9999,328.3534,263.5416,96.5402,-3.8912e-05,-5.57e-06,0.0,0 STARLINK-5064,1 55428U 23014AP  23354.13075790 -.00000557  00000-0 -38912-4 0  9999,2 55428  69.9999 328.3534 0002996 263.5416  96.5402 14.98330037 49207,6950.193,96.107,574.14,569.975,0.0
55428.0,STARLINK-5064,PAYLOAD,2023-12-20 07:56:41,14.98331227,0.0002713,70.0003,327.8486,251.555,108.5314,-6.345e-05,-8.5e-06,0.0,0 STARLINK-5064,1 55428U 23014AP  23354.33103755 -.00000850  00000-0 -63450-4 0  9995,2 55428  70.0003 327.8486 0002713 251.5550 108.5314 14.98331227 50175,6950.189,96.107,573.94,570.169,0.0
55428.0,STARLINK-5064,PAYLOAD,2023-12-21 03:10:18,14.98327341,0.0002894,70.0,325.8284,259.6666,100.4167,8.7774e-05,9.54e-06,0.0,0 STARLINK-5064,1 55428U 23014AP  23355.13215642  .00000954  00000-0  87774-4 0  9991,2 55428  70.0000 325.8284 0002894 259.6666 100.4167 14.98327341 49350,6950.201,96.107,574.078,570.055,0.0
55428.0,STARLINK-5064,PAYLOAD,2023-12-21 07:58:42,14.98330433,0.0002849,70.0,325.3233,256.8806,103.2035,0.00011888,1.326e-05,0.0,0 STARLINK-5064,1 55428U 23014AP  23355.33243358  .00001326  00000-0  11888-3 0  9994,2 55428  70.0000 325.3233 0002849 256.8806 103.2035 14.98330433 50324,6950.192,96.107,574.037,570.076,0.0
55428.0,STARLINK-5064,PAYLOAD,2023-12-21 22:23:55,14.98326852,0.0002676,70.0006,323.8091,249.3903,110.6969,-5.6702e-06,-1.61e-06,0.0,0 STARLINK-5064,1 55428U 23014AP  23355.93327966 -.00000161  00000-0 -56702-5 0  9992,2 55428  70.0006 323.8091 0002676 249.3903 110.6969 14.98326852 50416,6950.203,96.107,573.928,570.208,0.0
55428.0,STARLINK-5064,PAYLOAD,2023-12-22 03:12:19,14.98326543,0.0002684,70.0005,323.3046,249.0657,111.0215,-1.0119e-05,-2.14e-06,0.0,0 STARLINK-5064,1 55428U 23014AP  23356.13356024 -.00000214  00000-0 -10119-4 0  9992,2 55428  70.0005 323.3046 0002684 249.0657 111.0215 14.98326543 49506,6950.204,96.107,573.934,570.203,0.0
55428.0,STARLINK-5064,PAYLOAD,2023-12-22 06:24:35,14.98329971,0.0002632,70.0006,322.9681,246.0044,114.084,3.5356e-05,3.29e-06,0.0,0 STARLINK-5064,1 55428U 23014AP  23356.26707677  .00000329  00000-0  35356-4 0  9995,2 55428  70.0006 322.9681 0002632 246.0044 114.0840 14.98329971 50469,6950.193,96.107,573.887,570.229,0.0
55428.0,STARLINK-5064,PAYLOAD,2023-12-22 22:25:55,14.98331387,0.0002511,70.001,321.2858,238.9842,121.1071,1.0196e-05,2.9e-07,0.0,0 STARLINK-5064,1 55428U 23014AP  23356.93467577  .00000029  00000-0  10196-4 0  9993,2 55428  70.0010 321.2858 0002511 238.9842 121.1071 14.98331387 50564,6950.189,96.107,573.799,570.308,0.0
55428.0,STARLINK-5064,PAYLOAD,2023-12-23 03:14:20,14.98330781,0.0002517,70.001,320.7813,238.4937,121.5977,3.9842e-06,-4.5e-07,0.0,0 STARLINK-5064,1 55428U 23014AP  23357.13495613 -.00000045  00000-0  39842-5 0  9997,2 55428  70.0010 320.7813 0002517 238.4937 121.5977 14.98330781 49659,6950.19,96.107,573.805,570.306,0.0
55428.0,STARLINK-5064,PAYLOAD,2023-12-23 08:02:44,14.9831829,0.0002356,70.0006,320.2743,254.7928,105.2971,0.00016887,1.922e-05,0.0,0 STARLINK-5064,1 55428U 23014AP  23357.33524099  .00001922  00000-0  16887-3 0  9996,2 55428  70.0006 320.2743 0002356 254.7928 105.2971 14.98318290 49680,6950.229,96.108,573.732,570.457,0.0
55428.0,STARLINK-5064,PAYLOAD,2023-12-23 22:27:57,14.98330828,0.0002517,69.9999,318.7585,263.4675,96.6198,1.1993e-05,5e-07,0.0,0 STARLINK-5064,1 55428U 23014AP  23357.93607661  .00000050  00000-0  11993-4 0  9994,2 55428  69.9999 318.7585 0002517 263.4675  96.6198 14.98330828 50710,6950.19,96.107,573.805,570.306,0.0
55428.0,STARLINK-5064,PAYLOAD,2023-12-24 03:16:21,14.98331237,0.0002503,70.0,318.2534,262.7404,97.3471,1.812e-05,1.23e-06,0.0,0 STARLINK-5064,1 55428U 23014AP  23358.13635594  .00000123  00000-0  18120-4 0  9993,2 55428  70.0000 318.2534 0002503 262.7404  97.3471 14.98331237 49807,6950.189,96.107,573.794,570.314,0.0
55428.0,STARLINK-5064,PAYLOAD,2023-12-24 08:04:44,14.9834853,0.0002173,70.0002,317.7482,255.7815,104.3103,-0.00020128,-2.495e-05,0.0,0 STARLINK-5064,1 55428U 23014AP  23358.33662954 -.00002495  00000-0 -20128-3 0  9991,2 55428  70.0002 317.7482 0002173 255.7815 104.3103 14.98348530 49834,6950.136,96.106,573.511,570.49,0.0
55428.0,STARLINK-5064,PAYLOAD,2023-12-24 20:53:49,14.98325528,0.0001787,70.0015,316.3995,241.8131,118.2847,5.7695e-05,5.96e-06,0.0,0 STARLINK-5064,1 55428U 23014AP  23358.87071756  .00000596  00000-0  57695-4 0  9992,2 55428  70.0015 316.3995 0001787 241.8131 118.2847 14.98325528 49919,6950.207,96.107,573.314,570.83,0.0
55428.0,STARLINK-5064,PAYLOAD,2023-12-24 22:29:58,14.98325056,0.0002314,70.0012,316.2316,242.6557,117.4366,5.3351e-05,5.44e-06,0.0,0 STARLINK-5064,1 55428U 23014AP  23358.93747699  .00000544  00000-0  53351-4 0  9993,2 55428  70.0012 316.2316 0002314 242.6557 117.4366 14.98325056 50869,6950.208,96.107,573.681,570.465,0.0
55428.0,STARLINK-5064,PAYLOAD,2023-12-25 08:06:46,14.98329631,0.0002475,70.0002,315.2228,255.2273,104.8612,1.0315e-05,3e-07,0.0,0 STARLINK-5064,1 55428U 23014AP  23359.33803611  .00000030  00000-0  10315-4 0  9998,2 55428  70.0002 315.2228 0002475 255.2273 104.8612 14.98329631 50926,6950.194,96.107,573.779,570.339,0.0
55428.0,STARLINK-5064,PAYLOAD,2023-12-25 22:31:58,14.98329898,0.0002426,70.0002,313.7073,250.9802,109.1095,-3.1532e-05,-4.69e-06,0.0,0 STARLINK-5064,1 55428U 23014AP  23359.93887703 -.00000469  00000-0 -31532-4 0  9990,2 55428  70.0002 313.7073 0002426 250.9802 109.1095 14.98329898 51012,6950.193,96.107,573.744,570.372,0.0
55428.0,STARLINK-5064,PAYLOAD,2023-12-26 03:20:23,14.98328694,0.0002456,70.0004,313.2028,251.2945,108.7948,-3.3053e-05,-4.87e-06,0.0,0 STARLINK-5064,1 55428U 23014AP  23360.13915789 -.00000487  00000-0 -33053-4 0  9990,2 55428  70.0004 313.2028 0002456 251.2945 108.7948 14.98328694 50108,6950.197,96.107,573.769,570.355,0.0
55428.0,STARLINK-5064,PAYLOAD,2023-12-26 06:32:39,14.98330139,0.0002561,69.9997,312.8653,261.7332,98.3536,-3.1924e-05,-4.74e-06,0.0,0 STARLINK-5064,1 55428U 23014AP  23360.27267774 -.00000474  00000-0 -31924-4 0  9990,2 55428  69.9997 312.8653 0002561 261.7332  98.3536 14.98330139 51068,6950.192,96.107,573.837,570.278,0.0
55428.0,STARLINK-5064,PAYLOAD,2023-12-26 22:33:59,14.9832836,0.000271,69.9995,311.1821,262.0665,98.0187,1.9794e-05,1.43e-06,0.0,0 STARLINK-5064,1 55428U 23014AP  23360.94027685  .00000143  00000-0  19794-4 0  9991,2 55428  69.9995 311.1821 0002710 262.0665  98.0187 14.98328360 51167,6950.198,96.107,573.946,570.179,0.0
55428.0,STARLINK-5064,PAYLOAD,2023-12-27 03:22:23,14.98331189,0.0002523,70.0004,310.6781,248.8232,111.2657,4.5886e-05,4.55e-06,0.0,0 STARLINK-5064,1 55428U 23014AP  23361.14055410  .00000455  00000-0  45886-4 0  9998,2 55428  70.0004 310.6781 0002523 248.8232 111.2657 14.98331189 50256,6950.189,96.107,573.808,570.301,0.0
55428.0,STARLINK-5064,PAYLOAD,2023-12-27 06:34:39,14.98335652,0.0002817,69.9994,310.3401,262.3363,97.7476,8.5353e-05,9.26e-06,0.0,0 STARLINK-5064,1 55428U 23014AP  23361.27407033  .00000926  00000-0  85353-4 0  9990,2 55428  69.9994 310.3401 0002817 262.3363  97.7476 14.98335652 51212,6950.175,96.107,573.998,570.083,0.0
55428.0,STARLINK-5064,PAYLOAD,2023-12-27 22:36:00,14.98324777,0.0002366,70.0004,308.6572,265.2128,94.8761,3.8512e-05,3.67e-06,0.0,0 STARLINK-5064,1 55428U 23014AP  23361.94167798  .00000367  00000-0  38512-4 0  9999,2 55428  70.0004 308.6572 0002366 265.2128  94.8761 14.98324777 51318,6950.209,96.107,573.718,570.43,0.0
55428.0,STARLINK-5064,PAYLOAD,2023-12-28 03:24:25,14.98324626,0.0002482,70.0003,308.1523,265.6672,94.4203,1.5596e-05,9.3e-07,0.0,0 STARLINK-5064,1 55428U 23014AP  23362.14195914  .00000093  00000-0  15596-4 0  9996,2 55428  70.0003 308.1523 0002482 265.6672  94.4203 14.98324626 50404,6950.21,96.107,573.8,570.349,0.0
55428.0,STARLINK-5064,PAYLOAD,2023-12-28 06:36:41,14.98326872,0.0002431,70.0003,307.8156,261.3235,98.7649,3.2246e-05,2.92e-06,0.0,0 STARLINK-5064,1 55428U 23014AP  23362.27547744  .00000292  00000-0  32246-4 0  9994,2 55428  70.0003 307.8156 0002431 261.3235  98.7649 14.98326872 51366,6950.203,96.107,573.757,570.378,0.0
